start=new Date('2021-10-05T00:00:00.000Z').valueOf();
sats=[{"INCLINATION":"53.0553","OBJECT_ID":"2021-027AR","SITE":"AFETR","EPHEMERIS_TYPE":"0","TLE_LINE1":"1 48131U 21027AR  21277.53732806 -.00001321  00000-0 -69813-4 0  9992","CENTER_NAME":"EARTH","ELEMENT_SET_NO":"999","EPOCH":"2021-10-04T12:53:45.144384","DECAY_DATE":null,"OBJECT_NAME":"STARLINK-2473","MEAN_ANOMALY":"293.0474","BSTAR":"-0.00006981300000","FILE":"3144407","COUNTRY_CODE":"US","REF_FRAME":"TEME","RA_OF_ASC_NODE":"211.3079","CLASSIFICATION_TYPE":"U","ARG_OF_PERICENTER":"67.0677","MEAN_MOTION":"15.06390588","MEAN_MOTION_DDOT":"0.0000000000000","OBJECT_TYPE":"PAYLOAD","MEAN_ELEMENT_THEORY":"SGP4","REV_AT_EPOCH":"2895","TLE_LINE2":"2 48131  53.0553 211.3079 0001535  67.0677 293.0474 15.06390588 28958","PERIOD":"95.593","NORAD_CAT_ID":"48131","MEAN_MOTION_DOT":"-0.00001321","GP_ID":"186193664","APOAPSIS":"548.305","TIME_SYSTEM":"UTC","ECCENTRICITY":"0.00015350","LAUNCH_DATE":"2021-04-07","PERIAPSIS":"546.179","RCS_SIZE":"LARGE","SEMIMAJOR_AXIS":"6925.377"},{"COUNTRY_CODE":"US","FILE":"3144407","BSTAR":"0.00000787420000","MEAN_ANOMALY":"291.0317","DECAY_DATE":null,"OBJECT_NAME":"STARLINK-2474","EPOCH":"2021-10-04T14:00:05.843808","ELEMENT_SET_NO":"999","CENTER_NAME":"EARTH","TLE_LINE1":"1 48132U 21027AS  21277.58340097 -.00000164  00000-0  78742-5 0  9990","EPHEMERIS_TYPE":"0","SITE":"AFETR","INCLINATION":"53.0556","OBJECT_ID":"2021-027AS","SEMIMAJOR_AXIS":"6925.374","RCS_SIZE":"LARGE","ECCENTRICITY":"0.00015230","LAUNCH_DATE":"2021-04-07","PERIAPSIS":"546.184","TIME_SYSTEM":"UTC","APOAPSIS":"548.294","MEAN_MOTION_DOT":"-0.00000164","GP_ID":"186193415","PERIOD":"95.593","TLE_LINE2":"2 48132  53.0556 231.0836 0001523  69.0835 291.0317 15.06391727 28676","NORAD_CAT_ID":"48132","MEAN_ELEMENT_THEORY":"SGP4","REV_AT_EPOCH":"2867","OBJECT_TYPE":"PAYLOAD","MEAN_MOTION_DDOT":"0.0000000000000","CLASSIFICATION_TYPE":"U","MEAN_MOTION":"15.06391727","ARG_OF_PERICENTER":"69.0835","REF_FRAME":"TEME","RA_OF_ASC_NODE":"231.0836"},{"REV_AT_EPOCH":"2828","MEAN_ELEMENT_THEORY":"SGP4","GP_ID":"186198275","MEAN_MOTION_DOT":"0.00000212","NORAD_CAT_ID":"48133","PERIOD":"95.593","TLE_LINE2":"2 48133  53.0558 231.1007 0001549  70.1441 289.9715 15.06392732 28286","MEAN_MOTION":"15.06392732","ARG_OF_PERICENTER":"70.1441","CLASSIFICATION_TYPE":"U","RA_OF_ASC_NODE":"231.1007","REF_FRAME":"TEME","OBJECT_TYPE":"PAYLOAD","MEAN_MOTION_DDOT":"0.0000000000000","RCS_SIZE":"LARGE","SEMIMAJOR_AXIS":"6925.371","TIME_SYSTEM":"UTC","APOAPSIS":"548.309","LAUNCH_DATE":"2021-04-07","PERIAPSIS":"546.163","ECCENTRICITY":"0.00015490","CENTER_NAME":"EARTH","ELEMENT_SET_NO":"999","SITE":"AFETR","EPHEMERIS_TYPE":"0","OBJECT_ID":"2021-027AT","INCLINATION":"53.0558","TLE_LINE1":"1 48133U 21027AT  21277.57971141  .00000212  00000-0  33150-4 0  9996","FILE":"3144565","BSTAR":"0.00003315000000","COUNTRY_CODE":"US","EPOCH":"2021-10-04T13:54:47.065824","MEAN_ANOMALY":"289.9715","DECAY_DATE":null,"OBJECT_NAME":"STARLINK-2475"},{"GP_ID":"186192413","MEAN_MOTION_DOT":"-0.00000639","NORAD_CAT_ID":"48134","PERIOD":"95.593","TLE_LINE2":"2 48134  53.0555 231.1650 0001579  71.2518 288.8643 15.06393477 28676","MEAN_ELEMENT_THEORY":"SGP4","REV_AT_EPOCH":"2867","OBJECT_TYPE":"PAYLOAD","MEAN_MOTION_DDOT":"0.0000000000000","ARG_OF_PERICENTER":"71.2518","MEAN_MOTION":"15.06393477","CLASSIFICATION_TYPE":"U","RA_OF_ASC_NODE":"231.1650","REF_FRAME":"TEME","SEMIMAJOR_AXIS":"6925.369","RCS_SIZE":"LARGE","LAUNCH_DATE":"2021-04-07","PERIAPSIS":"546.140","ECCENTRICITY":"0.00015790","TIME_SYSTEM":"UTC","APOAPSIS":"548.327","ELEMENT_SET_NO":"999","CENTER_NAME":"EARTH","TLE_LINE1":"1 48134U 21027AU  21277.56496774 -.00000639  00000-0 -24021-4 0  9992","EPHEMERIS_TYPE":"0","SITE":"AFETR","OBJECT_ID":"2021-027AU","INCLINATION":"53.0555","COUNTRY_CODE":"US","FILE":"3144407","BSTAR":"-0.00002402100000","MEAN_ANOMALY":"288.8643","OBJECT_NAME":"STARLINK-2476","DECAY_DATE":null,"EPOCH":"2021-10-04T13:33:33.212736"},{"CENTER_NAME":"EARTH","ELEMENT_SET_NO":"999","OBJECT_ID":"2021-027AV","INCLINATION":"53.0550","SITE":"AFETR","EPHEMERIS_TYPE":"0","TLE_LINE1":"1 48135U 21027AV  21277.88240089  .00000293  00000-0  38552-4 0  9992","BSTAR":"0.00003855200000","FILE":"3144803","COUNTRY_CODE":"US","EPOCH":"2021-10-04T21:10:39.436896","DECAY_DATE":null,"OBJECT_NAME":"STARLINK-2478","MEAN_ANOMALY":"295.2997","MEAN_ELEMENT_THEORY":"SGP4","REV_AT_EPOCH":"2865","NORAD_CAT_ID":"48135","PERIOD":"95.593","TLE_LINE2":"2 48135  53.0550 234.7422 0001549  64.8152 295.2997 15.06382650 28650","GP_ID":"186225870","MEAN_MOTION_DOT":"0.00000293","RA_OF_ASC_NODE":"234.7422","REF_FRAME":"TEME","MEAN_MOTION":"15.06382650","ARG_OF_PERICENTER":"64.8152","CLASSIFICATION_TYPE":"U","MEAN_MOTION_DDOT":"0.0000000000000","OBJECT_TYPE":"PAYLOAD","RCS_SIZE":"LARGE","SEMIMAJOR_AXIS":"6925.402","APOAPSIS":"548.339","TIME_SYSTEM":"UTC","LAUNCH_DATE":"2021-04-07","ECCENTRICITY":"0.00015490","PERIAPSIS":"546.194"},{"EPOCH":"2021-10-04T14:10:42.608352","DECAY_DATE":null,"OBJECT_NAME":"STARLINK-2479","MEAN_ANOMALY":"288.6939","BSTAR":"0.00001777800000","FILE":"3144407","COUNTRY_CODE":"US","OBJECT_ID":"2021-027AW","INCLINATION":"53.0551","SITE":"AFETR","EPHEMERIS_TYPE":"0","TLE_LINE1":"1 48136U 21027AW  21277.59077093 -.00000017  00000-0  17778-4 0  9996","CENTER_NAME":"EARTH","ELEMENT_SET_NO":"999","APOAPSIS":"548.402","TIME_SYSTEM":"UTC","ECCENTRICITY":"0.00016740","LAUNCH_DATE":"2021-04-07","PERIAPSIS":"546.084","RCS_SIZE":"LARGE","SEMIMAJOR_AXIS":"6925.378","RA_OF_ASC_NODE":"231.0440","REF_FRAME":"TEME","ARG_OF_PERICENTER":"71.4232","MEAN_MOTION":"15.06390337","CLASSIFICATION_TYPE":"U","MEAN_MOTION_DDOT":"0.0000000000000","OBJECT_TYPE":"PAYLOAD","MEAN_ELEMENT_THEORY":"SGP4","REV_AT_EPOCH":"2868","NORAD_CAT_ID":"48136","TLE_LINE2":"2 48136  53.0551 231.0440 0001674  71.4232 288.6939 15.06390337 28680","PERIOD":"95.593","GP_ID":"186193915","MEAN_MOTION_DOT":"-0.00000017"},{"RCS_SIZE":"LARGE","SEMIMAJOR_AXIS":"6925.371","APOAPSIS":"548.470","TIME_SYSTEM":"UTC","ECCENTRICITY":"0.00017820","LAUNCH_DATE":"2021-04-07","PERIAPSIS":"546.002","MEAN_ELEMENT_THEORY":"SGP4","REV_AT_EPOCH":"2895","TLE_LINE2":"2 48137  53.0479 211.2581 0001782  64.3059 295.8113 15.06392786 28958","PERIOD":"95.593","NORAD_CAT_ID":"48137","MEAN_MOTION_DOT":"0.00000872","GP_ID":"186192663","REF_FRAME":"TEME","RA_OF_ASC_NODE":"211.2581","CLASSIFICATION_TYPE":"U","ARG_OF_PERICENTER":"64.3059","MEAN_MOTION":"15.06392786","MEAN_MOTION_DDOT":"0.0000000000000","OBJECT_TYPE":"PAYLOAD","BSTAR":"0.00007745300000","FILE":"3144407","COUNTRY_CODE":"US","EPOCH":"2021-10-04T13:13:36.841440","OBJECT_NAME":"STARLINK-2480","DECAY_DATE":null,"MEAN_ANOMALY":"295.8113","CENTER_NAME":"EARTH","ELEMENT_SET_NO":"999","INCLINATION":"53.0479","OBJECT_ID":"2021-027AX","SITE":"AFETR","EPHEMERIS_TYPE":"0","TLE_LINE1":"1 48137U 21027AX  21277.55112085  .00000872  00000-0  77453-4 0  9998"},{"MEAN_MOTION_DDOT":"0.0000000000000","OBJECT_TYPE":"PAYLOAD","RA_OF_ASC_NODE":"231.1193","REF_FRAME":"TEME","ARG_OF_PERICENTER":"67.7437","MEAN_MOTION":"15.06399501","CLASSIFICATION_TYPE":"U","NORAD_CAT_ID":"48138","TLE_LINE2":"2 48138  53.0562 231.1193 0001458  67.7437 292.3706 15.06399501 28681","PERIOD":"95.592","GP_ID":"186192913","MEAN_MOTION_DOT":"-0.00000122","MEAN_ELEMENT_THEORY":"SGP4","REV_AT_EPOCH":"2868","LAUNCH_DATE":"2021-04-07","ECCENTRICITY":"0.00014580","PERIAPSIS":"546.205","APOAPSIS":"548.225","TIME_SYSTEM":"UTC","SEMIMAJOR_AXIS":"6925.350","RCS_SIZE":"LARGE","TLE_LINE1":"1 48138U 21027AY  21277.57602101 -.00000122  00000-0  10695-4 0  9998","OBJECT_ID":"2021-027AY","INCLINATION":"53.0562","EPHEMERIS_TYPE":"0","SITE":"AFETR","ELEMENT_SET_NO":"999","CENTER_NAME":"EARTH","OBJECT_NAME":"STARLINK-2481","DECAY_DATE":null,"MEAN_ANOMALY":"292.3706","EPOCH":"2021-10-04T13:49:28.215264","COUNTRY_CODE":"US","BSTAR":"0.00001069500000","FILE":"3144407"},{"SEMIMAJOR_AXIS":"6925.352","RCS_SIZE":"LARGE","ECCENTRICITY":"0.00018410","LAUNCH_DATE":"2021-04-07","PERIAPSIS":"545.942","TIME_SYSTEM":"UTC","APOAPSIS":"548.492","GP_ID":"186193665","MEAN_MOTION_DOT":"-0.00000932","NORAD_CAT_ID":"48139","TLE_LINE2":"2 48139  53.0543 212.6432 0001841  55.4629 304.6533 15.06398768 28919","PERIOD":"95.592","MEAN_ELEMENT_THEORY":"SGP4","REV_AT_EPOCH":"2891","OBJECT_TYPE":"PAYLOAD","MEAN_MOTION_DDOT":"0.0000000000000","MEAN_MOTION":"15.06398768","ARG_OF_PERICENTER":"55.4629","CLASSIFICATION_TYPE":"U","RA_OF_ASC_NODE":"212.6432","REF_FRAME":"TEME","COUNTRY_CODE":"US","FILE":"3144407","BSTAR":"-0.00004367700000","MEAN_ANOMALY":"304.6533","OBJECT_NAME":"STARLINK-2482","DECAY_DATE":null,"EPOCH":"2021-10-04T05:38:30.115392","ELEMENT_SET_NO":"999","CENTER_NAME":"EARTH","TLE_LINE1":"1 48139U 21027AZ  21277.23507078 -.00000932  00000-0 -43677-4 0  9995","SITE":"AFETR","EPHEMERIS_TYPE":"0","OBJECT_ID":"2021-027AZ","INCLINATION":"53.0543"},{"MEAN_ELEMENT_THEORY":"SGP4","REV_AT_EPOCH":"2868","GP_ID":"186226622","MEAN_MOTION_DOT":"-0.00000485","NORAD_CAT_ID":"48140","PERIOD":"95.592","TLE_LINE2":"2 48140  53.0554 231.0003 0001581  68.8083 291.3075 15.06399825 28687","ARG_OF_PERICENTER":"68.8083","MEAN_MOTION":"15.06399825","CLASSIFICATION_TYPE":"U","RA_OF_ASC_NODE":"231.0003","REF_FRAME":"TEME","OBJECT_TYPE":"PAYLOAD","MEAN_MOTION_DDOT":"0.0000000000000","RCS_SIZE":"LARGE","SEMIMAJOR_AXIS":"6925.349","TIME_SYSTEM":"UTC","APOAPSIS":"548.309","LAUNCH_DATE":"2021-04-07","PERIAPSIS":"546.119","ECCENTRICITY":"0.00015810","CENTER_NAME":"EARTH","ELEMENT_SET_NO":"999","EPHEMERIS_TYPE":"0","SITE":"AFETR","OBJECT_ID":"2021-027BA","INCLINATION":"53.0554","TLE_LINE1":"1 48140U 21027BA  21277.60087689 -.00000485  00000-0 -13657-4 0  9997","FILE":"3144803","BSTAR":"-0.00001365700000","COUNTRY_CODE":"US","EPOCH":"2021-10-04T14:25:15.763296","MEAN_ANOMALY":"291.3075","OBJECT_NAME":"STARLINK-2483","DECAY_DATE":null}];
